{"type": "FeatureCollection", "features": [ {"type": "Feature", "properties": {"norad_id": 42987, "name": "SKYSAT-C11", "group": "resource", "lat": 57.735981943327744, "lon": 126.32560622056367, "alt_km": 416.3199764694509, "timestamp": "2025-12-26T09:30:53.285427+00:00", "meta": {"OBJECT_NAME": "SKYSAT-C11", "OBJECT_ID": "2017-068A", "EPOCH": "2025-12-25T22:24:11.990304", "MEAN_MOTION": 15.48016298, "ECCENTRICITY": 0.0001155, "INCLINATION": 97.4151, "RA_OF_ASC_NODE": 137.7566, "ARG_OF_PERICENTER": 96.2263, "MEAN_ANOMALY": 263.9118, "EPHEMERIS_TYPE": 0, "CLASSIFICATION_TYPE": "U", "NORAD_CAT_ID": 42987, "ELEMENT_SET_NO": 999, "REV_AT_EPOCH": 45635, "BSTAR": 0.00044195, "MEAN_MOTION_DOT": 0.00023051, "MEAN_MOTION_DDOT": 0}, "tle": {"line1": "1 42987U 17068A   25359.93347211  .00023051  00000+0  44195-3 0  9992", "line2": "2 42987  97.4151 137.7566 0001155  96.2263 263.9118 15.48016298456351"}}, "geometry": {"type": "Point", "coordinates": [126.32560622056367, 57.735981943327744]}}, {"type": "Feature", "properties": {"norad_id": 42988, "name": "SKYSAT-C10", "group": "resource", "lat": 81.23377164564732, "lon": 9.062344805173932, "alt_km": 459.4169902092872, "timestamp": "2025-12-26T09:30:53.285437+00:00", "meta": {"OBJECT_NAME": "SKYSAT-C10", "OBJECT_ID": "2017-068B", "EPOCH": "2025-12-24T19:29:00.783168", "MEAN_MOTION": 15.32071049, "ECCENTRICITY": 0.00043105, "INCLINATION": 97.4272, "RA_OF_ASC_NODE": 129.6977, "ARG_OF_PERICENTER": 75.127, "MEAN_ANOMALY": 285.0448, "EPHEMERIS_TYPE": 0, "CLASSIFICATION_TYPE": "U", "NORAD_CAT_ID": 42988, "ELEMENT_SET_NO": 999, "REV_AT_EPOCH": 45564, "BSTAR": 0.00040464637, "MEAN_MOTION_DOT": 0.00012461, "MEAN_MOTION_DDOT": 0}, "tle": {"line1": "1 42988U 17068B   25358.81181462  .00012461  00000+0  40465-3 0  9992", "line2": "2 42988  97.4272 129.6977 0004310  75.1270 285.0448 15.32071049455642"}}, "geometry": {"type": "Point", "coordinates": [9.062344805173932, 81.23377164564732]}}, {"type": "Feature", "properties": {"norad_id": 42989, "name": "SKYSAT-C9", "group": "resource", "lat": 37.956320099224094, "lon": -43.40462330883927, "alt_km": 455.02612705913725, "timestamp": "2025-12-26T09:30:53.285447+00:00", "meta": {"OBJECT_NAME": "SKYSAT-C9", "OBJECT_ID": "2017-068C", "EPOCH": "2025-12-25T21:57:34.809408", "MEAN_MOTION": 15.36381631, "ECCENTRICITY": 0.0010212, "INCLINATION": 97.4194, "RA_OF_ASC_NODE": 130.2756, "ARG_OF_PERICENTER": 45.4149, "MEAN_ANOMALY": 314.7927, "EPHEMERIS_TYPE": 0, "CLASSIFICATION_TYPE": "U", "NORAD_CAT_ID": 42989, "ELEMENT_SET_NO": 999, "REV_AT_EPOCH": 45610, "BSTAR": 0.0003925, "MEAN_MOTION_DOT": 0.00013877, "MEAN_MOTION_DDOT": 0}, "tle": {"line1": "1 42989U 17068C   25359.91498622  .00013877  00000+0  39250-3 0  9996", "line2": "2 42989  97.4194 130.2756 0010212  45.4149 314.7927 15.36381631456101"}}, "geometry": {"type": "Point", "coordinates": [-43.40462330883927, 37.956320099224094]}}, {"type": "Feature", "properties": {"norad_id": 42990, "name": "SKYSAT-C8", "group": "resource", "lat": -42.065251715428154, "lon": 137.22124417466762, "alt_km": 472.5232426985258, "timestamp": "2025-12-26T09:30:53.285472+00:00", "meta": {"OBJECT_NAME": "SKYSAT-C8", "OBJECT_ID": "2017-068D", "EPOCH": "2025-12-25T21:10:08.555808", "MEAN_MOTION": 15.33208945, "ECCENTRICITY": 9.45e-05, "INCLINATION": 97.4287, "RA_OF_ASC_NODE": 129.942, "ARG_OF_PERICENTER": 263.9401, "MEAN_ANOMALY": 96.1733, "EPHEMERIS_TYPE": 0, "CLASSIFICATION_TYPE": "U", "NORAD_CAT_ID": 42990, "ELEMENT_SET_NO": 999, "REV_AT_EPOCH": 45572, "BSTAR": 0.00035524, "MEAN_MOTION_DOT": 0.00011324, "MEAN_MOTION_DDOT": 0}, "tle": {"line1": "1 42990U 17068D   25359.88204347  .00011324  00000+0  35524-3 0  9998", "line2": "2 42990  97.4287 129.9420 0000945 263.9401  96.1733 15.33208945455725"}}, "geometry": {"type": "Point", "coordinates": [137.22124417466762, -42.065251715428154]}}, {"type": "Feature", "properties": {"norad_id": 42991, "name": "SKYSAT-C7", "group": "resource", "lat": 35.945543197763165, "lon": -43.081609887265074, "alt_km": 468.6499119872624, "timestamp": "2025-12-26T09:30:53.285483+00:00", "meta": {"OBJECT_NAME": "SKYSAT-C7", "OBJECT_ID": "2017-068E", "EPOCH": "2025-12-25T21:55:18.596352", "MEAN_MOTION": 15.32604229, "ECCENTRICITY": 0.0006816, "INCLINATION": 97.4296, "RA_OF_ASC_NODE": 131.004, "ARG_OF_PERICENTER": 14.8643, "MEAN_ANOMALY": 345.2798, "EPHEMERIS_TYPE": 0, "CLASSIFICATION_TYPE": "U", "NORAD_CAT_ID": 42991, "ELEMENT_SET_NO": 999, "REV_AT_EPOCH": 45579, "BSTAR": 0.00037042, "MEAN_MOTION_DOT": 0.00011596, "MEAN_MOTION_DDOT": 0}, "tle": {"line1": "1 42991U 17068E   25359.91340968  .00011596  00000+0  37042-3 0  9991", "line2": "2 42991  97.4296 131.0040 0006816  14.8643 345.2798 15.32604229455792"}}, "geometry": {"type": "Point", "coordinates": [-43.081609887265074, 35.945543197763165]}}, {"type": "Feature", "properties": {"norad_id": 42992, "name": "SKYSAT-C6", "group": "resource", "lat": -38.88199585741154, "lon": -54.12656011789968, "alt_km": 480.29985831361773, "timestamp": "2025-12-26T09:30:53.285494+00:00", "meta": {"OBJECT_NAME": "SKYSAT-C6", "OBJECT_ID": "2017-068F", "EPOCH": "2025-12-25T20:01:06.090528", "MEAN_MOTION": 15.31757076, "ECCENTRICITY": 0.00047376, "INCLINATION": 97.4326, "RA_OF_ASC_NODE": 131.3522, "ARG_OF_PERICENTER": 46.8398, "MEAN_ANOMALY": 313.3239, "EPHEMERIS_TYPE": 0, "CLASSIFICATION_TYPE": "U", "NORAD_CAT_ID": 42992, "ELEMENT_SET_NO": 999, "REV_AT_EPOCH": 45576, "BSTAR": 0.00037471515, "MEAN_MOTION_DOT": 0.0001142, "MEAN_MOTION_DDOT": 0}, "tle": {"line1": "1 42992U 17068F   25359.83409827  .00011420  00000+0  37472-3 0  9996", "line2": "2 42992  97.4326 131.3522 0004737  46.8398 313.3239 15.31757076455768"}}, "geometry": {"type": "Point", "coordinates": [-54.12656011789968, -38.88199585741154]}}, {"type": "Feature", "properties": {"norad_id": 43111, "name": "CARTOSAT-2F", "group": "resource", "lat": 76.01932304786828, "lon": 26.202465676743024, "alt_km": 500.03689060154284, "timestamp": "2025-12-26T09:30:53.285504+00:00", "meta": {"OBJECT_NAME": "CARTOSAT-2F", "OBJECT_ID": "2018-004A", "EPOCH": "2025-12-26T04:25:48.114624", "MEAN_MOTION": 15.19253079, "ECCENTRICITY": 0.0001522, "INCLINATION": 97.4294, "RA_OF_ASC_NODE": 57.6031, "ARG_OF_PERICENTER": 112.2672, "MEAN_ANOMALY": 247.8724, "EPHEMERIS_TYPE": 0, "CLASSIFICATION_TYPE": "U", "NORAD_CAT_ID": 43111, "ELEMENT_SET_NO": 999, "REV_AT_EPOCH": 44106, "BSTAR": 0.0002401, "MEAN_MOTION_DOT": 4.993e-05, "MEAN_MOTION_DDOT": 0}, "tle": {"line1": "1 43111U 18004A   25360.18458466  .00004993  00000+0  24010-3 0  9995", "line2": "2 43111  97.4294  57.6031 0001522 112.2672 247.8724 15.19253079441061"}}, "geometry": {"type": "Point", "coordinates": [26.202465676743024, 76.01932304786828]}}, {"type": "Feature", "properties": {"norad_id": 43259, "name": "GAOFEN-1 02", "group": "resource", "lat": -79.37389040946489, "lon": -171.01396678146963, "alt_km": 648.0833204449182, "timestamp": "2025-12-26T09:30:53.285514+00:00", "meta": {"OBJECT_NAME": "GAOFEN-1 02", "OBJECT_ID": "2018-031A", "EPOCH": "2025-12-26T05:04:26.232672", "MEAN_MOTION": 14.76444265, "ECCENTRICITY": 0.0002723, "INCLINATION": 98.0784, "RA_OF_ASC_NODE": 58.0042, "ARG_OF_PERICENTER": 168.4522, "MEAN_ANOMALY": 191.675, "EPHEMERIS_TYPE": 0, "CLASSIFICATION_TYPE": "U", "NORAD_CAT_ID": 43259, "ELEMENT_SET_NO": 999, "REV_AT_EPOCH": 41717, "BSTAR": 0.00021656, "MEAN_MOTION_DOT": 1.455e-05, "MEAN_MOTION_DDOT": 0}, "tle": {"line1": "1 43259U 18031A   25360.21141473  .00001455  00000+0  21656-3 0  9992", "line2": "2 43259  98.0784  58.0042 0002723 168.4522 191.6750 14.76444265417174"}}, "geometry": {"type": "Point", "coordinates": [-171.01396678146963, -79.37389040946489]}}, {"type": "Feature", "properties": {"norad_id": 43260, "name": "GAOFEN-1 03", "group": "resource", "lat": 18.902620380780778, "lon": 55.27766238164708, "alt_km": 641.5807065570516, "timestamp": "2025-12-26T09:30:53.285524+00:00", "meta": {"OBJECT_NAME": "GAOFEN-1 03", "OBJECT_ID": "2018-031B", "EPOCH": "2025-12-26T06:10:31.736928", "MEAN_MOTION": 14.76426035, "ECCENTRICITY": 0.0001645, "INCLINATION": 98.078, "RA_OF_ASC_NODE": 57.9261, "ARG_OF_PERICENTER": 252.6735, "MEAN_ANOMALY": 107.4295, "EPHEMERIS_TYPE": 0, "CLASSIFICATION_TYPE": "U", "NORAD_CAT_ID": 43260, "ELEMENT_SET_NO": 999, "REV_AT_EPOCH": 41717, "BSTAR": 0.00016522, "MEAN_MOTION_DOT": 1.097e-05, "MEAN_MOTION_DDOT": 0}, "tle": {"line1": "1 43260U 18031B   25360.25731177  .00001097  00000+0  16522-3 0  9992", "line2": "2 43260  98.0780  57.9261 0001645 252.6735 107.4295 14.76426035417171"}}, "geometry": {"type": "Point", "coordinates": [55.27766238164708, 18.902620380780778]}}, {"type": "Feature", "properties": {"norad_id": 43262, "name": "GAOFEN-1 04", "group": "resource", "lat": 31.42908476203039, "lon": -116.78516927058472, "alt_km": 638.8165835954451, "timestamp": "2025-12-26T09:30:53.285534+00:00", "meta": {"OBJECT_NAME": "GAOFEN-1 04", "OBJECT_ID": "2018-031D", "EPOCH": "2025-12-26T03:57:59.755680", "MEAN_MOTION": 14.76432792, "ECCENTRICITY": 4.85e-05, "INCLINATION": 98.0785, "RA_OF_ASC_NODE": 58.0043, "ARG_OF_PERICENTER": 66.8993, "MEAN_ANOMALY": 293.2268, "EPHEMERIS_TYPE": 0, "CLASSIFICATION_TYPE": "U", "NORAD_CAT_ID": 43262, "ELEMENT_SET_NO": 999, "REV_AT_EPOCH": 41715, "BSTAR": 0.00012019, "MEAN_MOTION_DOT": 7.84e-06, "MEAN_MOTION_DDOT": 0}, "tle": {"line1": "1 43262U 18031D   25360.16527495  .00000784  00000+0  12019-3 0  9999", "line2": "2 43262  98.0785  58.0043 0000485  66.8993 293.2268 14.76432792417159"}}, "geometry": {"type": "Point", "coordinates": [-116.78516927058472, 31.42908476203039]}}]}